STARLINK-2119_new
1 17397C 21005BA  21326.11822214  .00007391  00000-0  49514-3 0  3263
2 17397  53.0530 263.2197 0001927  59.2629  17.0329 15.06393470    11
STARLINK-2119_old
1 27397C 21005BA  21325.16631880  .00007855  00000-0  52644-3 0  3256
2 27397  53.0528 267.4928 0001834  58.9512 252.3150 15.06378785    18
